{"epoch":1784799577,"count":18318,"objects":[{"id":"62685","name":"FLOCK 4G 33","type":"PAYLOAD","l1":"1 62685U 25009CE  26203.20604603  .00005812  00000-0  22978-3 0  9994","l2":"2 62685  97.3935 282.6822 0005309 188.1445 171.9708 15.25853548 84149"},{"id":"66704","name":"FLOCK 4H 1","type":"PAYLOAD","l1":"1 66704U 25276AQ  26203.51484687  .00005745  00000-0  26284-3 0  9997","l2":"2 66704  97.4163 276.6474 0002682 154.6979 205.4388 15.20911663 35800"},{"id":"66705","name":"FLOCK 4H 2","type":"PAYLOAD","l1":"1 66705U 25276AR  26203.48723369  .00007143  00000-0  32337-3 0  9997","l2":"2 66705  97.4158 276.6714 0002074 145.3854 214.7517 15.21188827 35802"},{"id":"66706","name":"FLOCK 4H 3","type":"PAYLOAD","l1":"1 66706U 25276AS  26203.15239025  .00006635  00000-0  30842-3 0  9997","l2":"2 66706  97.4225 276.2632 0003085 214.7696 145.3338 15.20301623 35733"},{"id":"66707","name":"FLOCK 4H 4","type":"PAYLOAD","l1":"1 66707U 25276AT  26203.91350632  .00006855  00000-0  32033-3 0  9998","l2":"2 66707  97.4209 276.8757 0003694 217.5050 142.5928 15.20105982 35847"},{"id":"66708","name":"FLOCK 4H 5","type":"PAYLOAD","l1":"1 66708U 25276AU  26203.57265335  .00005981  00000-0  27306-3 0  9992","l2":"2 66708  97.4161 276.7260 0001774 134.0734 226.0648 15.20963670 35812"},{"id":"66709","name":"FLOCK 4H 6","type":"PAYLOAD","l1":"1 66709U 25276AV  26203.15944827  .00006864  00000-0  31563-3 0  9998","l2":"2 66709  97.4211 276.3643 0003204 179.7607 180.3631 15.20663837 35743"},{"id":"66710","name":"FLOCK 4H 7","type":"PAYLOAD","l1":"1 66710U 25276AW  26203.20807106  .00006801  00000-0  31482-3 0  9995","l2":"2 66710  97.4168 276.1632 0001014 225.4786 134.6367 15.20440658 35748"},{"id":"66711","name":"FLOCK 4H 8","type":"PAYLOAD","l1":"1 66711U 25276AX  26203.72492680  .00006912  00000-0  31883-3 0  9998","l2":"2 66711  97.4209 276.8266 0002294 225.2352 134.8697 15.20556438 35824"},{"id":"66712","name":"FLOCK 4H 9","type":"PAYLOAD","l1":"1 66712U 25276AY  26203.67144588  .00007370  00000-0  33673-3 0  9992","l2":"2 66712  97.4199 276.8711 0003183 184.7520 175.3686 15.20860031 35827"},{"id":"66713","name":"FLOCK 4H 10","type":"PAYLOAD","l1":"1 66713U 25276AZ  26203.63364911  .00006474  00000-0  30164-3 0  9999","l2":"2 66713  97.4176 276.5339 0003466 218.3867 141.7122 15.20228229 35805"},{"id":"66714","name":"FLOCK 4H 11","type":"PAYLOAD","l1":"1 66714U 25276BA  26203.44608894  .00015068  00000-0  63425-3 0  9995","l2":"2 66714  97.4180 276.9781 0002134 208.1161 151.9961 15.23463606 35819"},{"id":"66715","name":"FLOCK 4H 12","type":"PAYLOAD","l1":"1 66715U 25276BB  26203.59256992  .00007358  00000-0  33592-3 0  9995","l2":"2 66715  97.4172 276.7273 0002609 162.0617 198.0711 15.20886167 36124"},{"id":"66716","name":"FLOCK 4H 13","type":"PAYLOAD","l1":"1 66716U 25276BC  26203.16795888  .00005785  00000-0  26418-3 0  9992","l2":"2 66716  97.4207 276.4867 0002325 134.6085 225.5341 15.20973722 35756"},{"id":"66717","name":"FLOCK 4H 14","type":"PAYLOAD","l1":"1 66717U 25276BD  26203.45520831  .00006439  00000-0  28979-3 0  9990","l2":"2 66717  97.4189 276.8194 0002264 134.0744 226.0678 15.21430031 35055"},{"id":"66718","name":"FLOCK 4H 15","type":"PAYLOAD","l1":"1 66718U 25276BE  26203.20814991  .00006790  00000-0  31884-3 0  9996","l2":"2 66718  97.4201 276.1202 0002963 236.4433 123.6520 15.19943062 35735"}]}