{"fetched_at":"2026-07-23T07:05:20.500Z","source":"https://celestrak.org/NORAD/elements/gp.php?GROUP=planet&FORMAT=JSON","constellation":"superdove","records":[{"OBJECT_NAME":"FLOCK 4G-33","OBJECT_ID":"2025-009CE","EPOCH":"2026-07-22T04:56:42.376992","CLASSIFICATION_TYPE":"U","MEAN_MOTION":15.25853548,"ECCENTRICITY":0.00053089,"INCLINATION":97.3935,"RA_OF_ASC_NODE":282.6822,"ARG_OF_PERICENTER":188.1445,"MEAN_ANOMALY":171.9708,"EPHEMERIS_TYPE":0,"NORAD_CAT_ID":62685,"ELEMENT_SET_NO":999,"REV_AT_EPOCH":8414,"BSTAR":0.00022977956,"MEAN_MOTION_DOT":0.00005812,"MEAN_MOTION_DDOT":0},{"OBJECT_NAME":"FLOCK 4H-1","OBJECT_ID":"2025-276AQ","EPOCH":"2026-07-22T12:21:22.769568","CLASSIFICATION_TYPE":"U","MEAN_MOTION":15.20911663,"ECCENTRICITY":0.00026823,"INCLINATION":97.4163,"RA_OF_ASC_NODE":276.6474,"ARG_OF_PERICENTER":154.6979,"MEAN_ANOMALY":205.4388,"EPHEMERIS_TYPE":0,"NORAD_CAT_ID":66704,"ELEMENT_SET_NO":999,"REV_AT_EPOCH":3580,"BSTAR":0.00026283985,"MEAN_MOTION_DOT":0.00005745,"MEAN_MOTION_DDOT":0},{"OBJECT_NAME":"FLOCK 4H-2","OBJECT_ID":"2025-276AR","EPOCH":"2026-07-22T11:41:36.990816","CLASSIFICATION_TYPE":"U","MEAN_MOTION":15.21188827,"ECCENTRICITY":0.0002074,"INCLINATION":97.4158,"RA_OF_ASC_NODE":276.6714,"ARG_OF_PERICENTER":145.3854,"MEAN_ANOMALY":214.7517,"EPHEMERIS_TYPE":0,"NORAD_CAT_ID":66705,"ELEMENT_SET_NO":999,"REV_AT_EPOCH":3580,"BSTAR":0.00032336741,"MEAN_MOTION_DOT":0.00007143,"MEAN_MOTION_DDOT":0},{"OBJECT_NAME":"FLOCK 4H-3","OBJECT_ID":"2025-276AS","EPOCH":"2026-07-22T03:39:26.517600","CLASSIFICATION_TYPE":"U","MEAN_MOTION":15.20301623,"ECCENTRICITY":0.00030849,"INCLINATION":97.4225,"RA_OF_ASC_NODE":276.2632,"ARG_OF_PERICENTER":214.7696,"MEAN_ANOMALY":145.3338,"EPHEMERIS_TYPE":0,"NORAD_CAT_ID":66706,"ELEMENT_SET_NO":999,"REV_AT_EPOCH":3573,"BSTAR":0.00030842248,"MEAN_MOTION_DOT":0.00006635,"MEAN_MOTION_DDOT":0},{"OBJECT_NAME":"FLOCK 4H-4","OBJECT_ID":"2025-276AT","EPOCH":"2026-07-22T21:55:26.946048","CLASSIFICATION_TYPE":"U","MEAN_MOTION":15.20105982,"ECCENTRICITY":0.00036944,"INCLINATION":97.4209,"RA_OF_ASC_NODE":276.8757,"ARG_OF_PERICENTER":217.505,"MEAN_ANOMALY":142.5928,"EPHEMERIS_TYPE":0,"NORAD_CAT_ID":66707,"ELEMENT_SET_NO":999,"REV_AT_EPOCH":3584,"BSTAR":0.00032032785,"MEAN_MOTION_DOT":0.00006855,"MEAN_MOTION_DDOT":0},{"OBJECT_NAME":"FLOCK 4H-5","OBJECT_ID":"2025-276AU","EPOCH":"2026-07-22T13:44:37.249440","CLASSIFICATION_TYPE":"U","MEAN_MOTION":15.2096367,"ECCENTRICITY":0.00017736,"INCLINATION":97.4161,"RA_OF_ASC_NODE":276.726,"ARG_OF_PERICENTER":134.0734,"MEAN_ANOMALY":226.0648,"EPHEMERIS_TYPE":0,"NORAD_CAT_ID":66708,"ELEMENT_SET_NO":999,"REV_AT_EPOCH":3581,"BSTAR":0.00027306382,"MEAN_MOTION_DOT":0.00005981,"MEAN_MOTION_DDOT":0},{"OBJECT_NAME":"FLOCK 4H-6","OBJECT_ID":"2025-276AV","EPOCH":"2026-07-22T03:49:36.330528","CLASSIFICATION_TYPE":"U","MEAN_MOTION":15.20663837,"ECCENTRICITY":0.00032044,"INCLINATION":97.4211,"RA_OF_ASC_NODE":276.3643,"ARG_OF_PERICENTER":179.7607,"MEAN_ANOMALY":180.3631,"EPHEMERIS_TYPE":0,"NORAD_CAT_ID":66709,"ELEMENT_SET_NO":999,"REV_AT_EPOCH":3574,"BSTAR":0.00031562926,"MEAN_MOTION_DOT":0.00006864,"MEAN_MOTION_DDOT":0},{"OBJECT_NAME":"FLOCK 4H-7","OBJECT_ID":"2025-276AW","EPOCH":"2026-07-22T04:59:37.339584","CLASSIFICATION_TYPE":"U","MEAN_MOTION":15.20440658,"ECCENTRICITY":0.00010139,"INCLINATION":97.4168,"RA_OF_ASC_NODE":276.1632,"ARG_OF_PERICENTER":225.4786,"MEAN_ANOMALY":134.6367,"EPHEMERIS_TYPE":0,"NORAD_CAT_ID":66710,"ELEMENT_SET_NO":999,"REV_AT_EPOCH":3574,"BSTAR":0.00031481816,"MEAN_MOTION_DOT":0.00006801,"MEAN_MOTION_DDOT":0},{"OBJECT_NAME":"FLOCK 4H-8","OBJECT_ID":"2025-276AX","EPOCH":"2026-07-22T17:23:53.675520","CLASSIFICATION_TYPE":"U","MEAN_MOTION":15.20556438,"ECCENTRICITY":0.00022942,"INCLINATION":97.4209,"RA_OF_ASC_NODE":276.8266,"ARG_OF_PERICENTER":225.2352,"MEAN_ANOMALY":134.8697,"EPHEMERIS_TYPE":0,"NORAD_CAT_ID":66711,"ELEMENT_SET_NO":999,"REV_AT_EPOCH":3582,"BSTAR":0.00031882918,"MEAN_MOTION_DOT":0.00006912,"MEAN_MOTION_DDOT":0},{"OBJECT_NAME":"FLOCK 4H-9","OBJECT_ID":"2025-276AY","EPOCH":"2026-07-22T16:06:52.924032","CLASSIFICATION_TYPE":"U","MEAN_MOTION":15.20860031,"ECCENTRICITY":0.00031832,"INCLINATION":97.4199,"RA_OF_ASC_NODE":276.8711,"ARG_OF_PERICENTER":184.752,"MEAN_ANOMALY":175.3686,"EPHEMERIS_TYPE":0,"NORAD_CAT_ID":66712,"ELEMENT_SET_NO":999,"REV_AT_EPOCH":3582,"BSTAR":0.0003367312,"MEAN_MOTION_DOT":0.0000737,"MEAN_MOTION_DDOT":0},{"OBJECT_NAME":"FLOCK 4H-10","OBJECT_ID":"2025-276AZ","EPOCH":"2026-07-22T15:12:27.283104","CLASSIFICATION_TYPE":"U","MEAN_MOTION":15.20228229,"ECCENTRICITY":0.00034656,"INCLINATION":97.4176,"RA_OF_ASC_NODE":276.5339,"ARG_OF_PERICENTER":218.3867,"MEAN_ANOMALY":141.7122,"EPHEMERIS_TYPE":0,"NORAD_CAT_ID":66713,"ELEMENT_SET_NO":999,"REV_AT_EPOCH":3580,"BSTAR":0.00030163777,"MEAN_MOTION_DOT":0.00006474,"MEAN_MOTION_DDOT":0},{"OBJECT_NAME":"FLOCK 4H-11","OBJECT_ID":"2025-276BA","EPOCH":"2026-07-22T10:42:22.084416","CLASSIFICATION_TYPE":"U","MEAN_MOTION":15.23463606,"ECCENTRICITY":0.00021345,"INCLINATION":97.418,"RA_OF_ASC_NODE":276.9781,"ARG_OF_PERICENTER":208.1161,"MEAN_ANOMALY":151.9961,"EPHEMERIS_TYPE":0,"NORAD_CAT_ID":66714,"ELEMENT_SET_NO":999,"REV_AT_EPOCH":3581,"BSTAR":0.00063425232,"MEAN_MOTION_DOT":0.00015068,"MEAN_MOTION_DDOT":0},{"OBJECT_NAME":"FLOCK 4H-12","OBJECT_ID":"2025-276BB","EPOCH":"2026-07-22T14:13:18.041088","CLASSIFICATION_TYPE":"U","MEAN_MOTION":15.20886167,"ECCENTRICITY":0.00026089,"INCLINATION":97.4172,"RA_OF_ASC_NODE":276.7273,"ARG_OF_PERICENTER":162.0617,"MEAN_ANOMALY":198.0711,"EPHEMERIS_TYPE":0,"NORAD_CAT_ID":66715,"ELEMENT_SET_NO":999,"REV_AT_EPOCH":3612,"BSTAR":0.00033592192,"MEAN_MOTION_DOT":0.00007358,"MEAN_MOTION_DDOT":0},{"OBJECT_NAME":"FLOCK 4H-13","OBJECT_ID":"2025-276BC","EPOCH":"2026-07-22T04:01:51.647232","CLASSIFICATION_TYPE":"U","MEAN_MOTION":15.20973722,"ECCENTRICITY":0.00023255,"INCLINATION":97.4207,"RA_OF_ASC_NODE":276.4867,"ARG_OF_PERICENTER":134.6085,"MEAN_ANOMALY":225.5341,"EPHEMERIS_TYPE":0,"NORAD_CAT_ID":66716,"ELEMENT_SET_NO":999,"REV_AT_EPOCH":3575,"BSTAR":0.00026418238,"MEAN_MOTION_DOT":0.00005785,"MEAN_MOTION_DDOT":0},{"OBJECT_NAME":"FLOCK 4H-14","OBJECT_ID":"2025-276BD","EPOCH":"2026-07-22T10:55:29.997984","CLASSIFICATION_TYPE":"U","MEAN_MOTION":15.21430031,"ECCENTRICITY":0.00022641,"INCLINATION":97.4189,"RA_OF_ASC_NODE":276.8194,"ARG_OF_PERICENTER":134.0744,"MEAN_ANOMALY":226.0678,"EPHEMERIS_TYPE":0,"NORAD_CAT_ID":66717,"ELEMENT_SET_NO":999,"REV_AT_EPOCH":3505,"BSTAR":0.0002897866,"MEAN_MOTION_DOT":0.00006439,"MEAN_MOTION_DDOT":0},{"OBJECT_NAME":"FLOCK 4H-15","OBJECT_ID":"2025-276BE","EPOCH":"2026-07-22T04:59:44.152224","CLASSIFICATION_TYPE":"U","MEAN_MOTION":15.19943062,"ECCENTRICITY":0.0002963,"INCLINATION":97.4201,"RA_OF_ASC_NODE":276.1202,"ARG_OF_PERICENTER":236.4433,"MEAN_ANOMALY":123.652,"EPHEMERIS_TYPE":0,"NORAD_CAT_ID":66718,"ELEMENT_SET_NO":999,"REV_AT_EPOCH":3573,"BSTAR":0.00031884221,"MEAN_MOTION_DOT":0.0000679,"MEAN_MOTION_DDOT":0}]}
